CCSDS_OMM_VERS = 2.0
CREATION_DATE  = 
ORIGINATOR     = 

OBJECT_NAME    = COSMOS 1892
OBJECT_ID      = 1987-088A
CENTER_NAME    = EARTH
REF_FRAME      = TEME
TIME_SYSTEM    = UTC
MEAN_ELEMENT_THEORY = SGP/SGP4

EPOCH          = 2025-11-14T16:54:39.912768
MEAN_MOTION    = 16.01149665
ECCENTRICITY   = .0006391
INCLINATION    = 82.4663
RA_OF_ASC_NODE = 75.3800
ARG_OF_PERICENTER = 279.6648
MEAN_ANOMALY   = 80.3908

EPHEMERIS_TYPE = 0
CLASSIFICATION_TYPE = U
NORAD_CAT_ID   = 18421
ELEMENT_SET_NO = 999
REV_AT_EPOCH   = 8682
BSTAR          = .74468E-3
MEAN_MOTION_DOT = .403725E-2
MEAN_MOTION_DDOT = .68942E-4

CCSDS_OMM_VERS = 2.0
CREATION_DATE  = 
ORIGINATOR     = 

OBJECT_NAME    = SL-14 R/B
OBJECT_ID      = 1988-001B
CENTER_NAME    = EARTH
REF_FRAME      = TEME
TIME_SYSTEM    = UTC
MEAN_ELEMENT_THEORY = SGP/SGP4

EPOCH          = 2025-11-14T16:30:42.560640
MEAN_MOTION    = 14.85379819
ECCENTRICITY   = .0016489
INCLINATION    = 82.5107
RA_OF_ASC_NODE = 303.5364
ARG_OF_PERICENTER = 257.7534
MEAN_ANOMALY   = 102.1836

EPHEMERIS_TYPE = 0
CLASSIFICATION_TYPE = U
NORAD_CAT_ID   = 18749
ELEMENT_SET_NO = 999
REV_AT_EPOCH   = 2495
BSTAR          = .1189E-3
MEAN_MOTION_DOT = .1049E-4
MEAN_MOTION_DDOT = 0

CCSDS_OMM_VERS = 2.0
CREATION_DATE  = 
ORIGINATOR     = 

OBJECT_NAME    = COSMOS 1933
OBJECT_ID      = 1988-020A
CENTER_NAME    = EARTH
REF_FRAME      = TEME
TIME_SYSTEM    = UTC
MEAN_ELEMENT_THEORY = SGP/SGP4

EPOCH          = 2025-11-14T20:24:16.691616
MEAN_MOTION    = 15.16806880
ECCENTRICITY   = .0003314
INCLINATION    = 82.5162
RA_OF_ASC_NODE = 4.4287
ARG_OF_PERICENTER = 222.6155
MEAN_ANOMALY   = 137.4822

EPHEMERIS_TYPE = 0
CLASSIFICATION_TYPE = U
NORAD_CAT_ID   = 18958
ELEMENT_SET_NO = 999
REV_AT_EPOCH   = 3281
BSTAR          = .25236E-3
MEAN_MOTION_DOT = .4987E-4
MEAN_MOTION_DDOT = 0

CCSDS_OMM_VERS = 2.0
CREATION_DATE  = 
ORIGINATOR     = 

OBJECT_NAME    = SL-3 R/B
OBJECT_ID      = 1988-032B
CENTER_NAME    = EARTH
REF_FRAME      = TEME
TIME_SYSTEM    = UTC
MEAN_ELEMENT_THEORY = SGP/SGP4

EPOCH          = 2025-11-14T20:32:53.539008
MEAN_MOTION    = 15.18340148
ECCENTRICITY   = .0024883
INCLINATION    = 97.5053
RA_OF_ASC_NODE = 297.7826
ARG_OF_PERICENTER = 274.8214
MEAN_ANOMALY   = 85.0178

EPHEMERIS_TYPE = 0
CLASSIFICATION_TYPE = U
NORAD_CAT_ID   = 19046
ELEMENT_SET_NO = 999
REV_AT_EPOCH   = 3467
BSTAR          = .35837E-3
MEAN_MOTION_DOT = .7349E-4
MEAN_MOTION_DDOT = 0

CCSDS_OMM_VERS = 2.0
CREATION_DATE  = 
ORIGINATOR     = 

OBJECT_NAME    = SL-16 R/B
OBJECT_ID      = 1988-039B
CENTER_NAME    = EARTH
REF_FRAME      = TEME
TIME_SYSTEM    = UTC
MEAN_ELEMENT_THEORY = SGP/SGP4

EPOCH          = 2025-11-14T16:51:22.273632
MEAN_MOTION    = 14.19589827
ECCENTRICITY   = .0021018
INCLINATION    = 71.0142
RA_OF_ASC_NODE = 311.6819
ARG_OF_PERICENTER = 162.5500
MEAN_ANOMALY   = 197.6352

EPHEMERIS_TYPE = 0
CLASSIFICATION_TYPE = U
NORAD_CAT_ID   = 19120
ELEMENT_SET_NO = 999
REV_AT_EPOCH   = 94206
BSTAR          = .12679E-4
MEAN_MOTION_DOT = -.21E-6
MEAN_MOTION_DDOT = 0

CCSDS_OMM_VERS = 2.0
CREATION_DATE  = 
ORIGINATOR     = 

OBJECT_NAME    = COSMOS 1953
OBJECT_ID      = 1988-050A
CENTER_NAME    = EARTH
REF_FRAME      = TEME
TIME_SYSTEM    = UTC
MEAN_ELEMENT_THEORY = SGP/SGP4

EPOCH          = 2025-11-14T09:21:22.448160
MEAN_MOTION    = 15.26486437
ECCENTRICITY   = .0012361
INCLINATION    = 82.5072
RA_OF_ASC_NODE = 274.0186
ARG_OF_PERICENTER = 159.6362
MEAN_ANOMALY   = 200.5372

EPHEMERIS_TYPE = 0
CLASSIFICATION_TYPE = U
NORAD_CAT_ID   = 19210
ELEMENT_SET_NO = 999
REV_AT_EPOCH   = 2018
BSTAR          = .28E-3
MEAN_MOTION_DOT = .7352E-4
MEAN_MOTION_DDOT = 0

CCSDS_OMM_VERS = 2.0
CREATION_DATE  = 
ORIGINATOR     = 

OBJECT_NAME    = SL-8 R/B
OBJECT_ID      = 1988-053B
CENTER_NAME    = EARTH
REF_FRAME      = TEME
TIME_SYSTEM    = UTC
MEAN_ELEMENT_THEORY = SGP/SGP4

EPOCH          = 2025-11-14T18:00:48.587040
MEAN_MOTION    = 14.38835799
ECCENTRICITY   = .0019971
INCLINATION    = 74.0470
RA_OF_ASC_NODE = 324.3068
ARG_OF_PERICENTER = 177.4353
MEAN_ANOMALY   = 355.6758

EPHEMERIS_TYPE = 0
CLASSIFICATION_TYPE = U
NORAD_CAT_ID   = 19257
ELEMENT_SET_NO = 999
REV_AT_EPOCH   = 96006
BSTAR          = .20066E-3
MEAN_MOTION_DOT = .592E-5
MEAN_MOTION_DDOT = 0

CCSDS_OMM_VERS = 2.0
CREATION_DATE  = 
ORIGINATOR     = 

OBJECT_NAME    = COSMOS 1975
OBJECT_ID      = 1988-093A
CENTER_NAME    = EARTH
REF_FRAME      = TEME
TIME_SYSTEM    = UTC
MEAN_ELEMENT_THEORY = SGP/SGP4

EPOCH          = 2025-11-14T14:06:07.509024
MEAN_MOTION    = 15.25857440
ECCENTRICITY   = .0010114
INCLINATION    = 82.5216
RA_OF_ASC_NODE = 232.9943
ARG_OF_PERICENTER = 207.8929
MEAN_ANOMALY   = 152.1769

EPHEMERIS_TYPE = 0
CLASSIFICATION_TYPE = U
NORAD_CAT_ID   = 19573
ELEMENT_SET_NO = 999
REV_AT_EPOCH   = 184
BSTAR          = .45811E-3
MEAN_MOTION_DOT = .11779E-3
MEAN_MOTION_DDOT = 0

CCSDS_OMM_VERS = 2.0
CREATION_DATE  = 
ORIGINATOR     = 

OBJECT_NAME    = SL-14 R/B
OBJECT_ID      = 1988-093B
CENTER_NAME    = EARTH
REF_FRAME      = TEME
TIME_SYSTEM    = UTC
MEAN_ELEMENT_THEORY = SGP/SGP4

EPOCH          = 2025-11-14T19:29:32.689824
MEAN_MOTION    = 14.85507523
ECCENTRICITY   = .0022109
INCLINATION    = 82.5294
RA_OF_ASC_NODE = 149.8762
ARG_OF_PERICENTER = 60.3398
MEAN_ANOMALY   = 310.3583

EPHEMERIS_TYPE = 0
CLASSIFICATION_TYPE = U
NORAD_CAT_ID   = 19574
ELEMENT_SET_NO = 999
REV_AT_EPOCH   = 98398
BSTAR          = .10395E-3
MEAN_MOTION_DOT = .925E-5
MEAN_MOTION_DDOT = 0

CCSDS_OMM_VERS = 2.0
CREATION_DATE  = 
ORIGINATOR     = 

OBJECT_NAME    = SL-16 R/B
OBJECT_ID      = 1988-102B
CENTER_NAME    = EARTH
REF_FRAME      = TEME
TIME_SYSTEM    = UTC
MEAN_ELEMENT_THEORY = SGP/SGP4

EPOCH          = 2025-11-14T15:04:11.177760
MEAN_MOTION    = 14.16130209
ECCENTRICITY   = .0014673
INCLINATION    = 71.0011
RA_OF_ASC_NODE = 33.5923
ARG_OF_PERICENTER = 195.3447
MEAN_ANOMALY   = 164.7234

EPHEMERIS_TYPE = 0
CLASSIFICATION_TYPE = U
NORAD_CAT_ID   = 19650
ELEMENT_SET_NO = 999
REV_AT_EPOCH   = 91060
BSTAR          = .14095E-4
MEAN_MOTION_DOT = -.2E-6
MEAN_MOTION_DDOT = 0

CCSDS_OMM_VERS = 2.0
CREATION_DATE  = 
ORIGINATOR     = 

OBJECT_NAME    = INTERCOSMOS 24
OBJECT_ID      = 1989-080A
CENTER_NAME    = EARTH
REF_FRAME      = TEME
TIME_SYSTEM    = UTC
MEAN_ELEMENT_THEORY = SGP/SGP4

EPOCH          = 2025-11-14T20:33:07.710336
MEAN_MOTION    = 12.59376502
ECCENTRICITY   = .1188154
INCLINATION    = 82.6067
RA_OF_ASC_NODE = 179.0838
ARG_OF_PERICENTER = 199.2007
MEAN_ANOMALY   = 156.0452

EPHEMERIS_TYPE = 0
CLASSIFICATION_TYPE = U
NORAD_CAT_ID   = 20261
ELEMENT_SET_NO = 999
REV_AT_EPOCH   = 65234
BSTAR          = .31809E-3
MEAN_MOTION_DOT = .1083E-4
MEAN_MOTION_DDOT = 0

CCSDS_OMM_VERS = 2.0
CREATION_DATE  = 
ORIGINATOR     = 

OBJECT_NAME    = SL-14 R/B
OBJECT_ID      = 1989-080C
CENTER_NAME    = EARTH
REF_FRAME      = TEME
TIME_SYSTEM    = UTC
MEAN_ELEMENT_THEORY = SGP/SGP4

EPOCH          = 2025-11-14T17:46:59.546208
MEAN_MOTION    = 12.50382769
ECCENTRICITY   = .1231219
INCLINATION    = 82.5935
RA_OF_ASC_NODE = 246.9878
ARG_OF_PERICENTER = 87.5537
MEAN_ANOMALY   = 286.5597

EPHEMERIS_TYPE = 0
CLASSIFICATION_TYPE = U
NORAD_CAT_ID   = 20262
ELEMENT_SET_NO = 999
REV_AT_EPOCH   = 64578
BSTAR          = .1581E-3
MEAN_MOTION_DOT = .556E-5
MEAN_MOTION_DDOT = 0

