COSMOS 1892             
1 18421U 87088A   25318.70462862  .00403725  68942-4  74468-3 0  9997
2 18421  82.4663  75.3800 0006391 279.6648  80.3908 16.01149665 86822
SL-14 R/B               
1 18749U 88001B   25318.68799260  .00001049  00000+0  11890-3 0  9997
2 18749  82.5107 303.5364 0016489 257.7534 102.1836 14.85379819 24955
COSMOS 1933             
1 18958U 88020A   25318.85019319  .00004987  00000+0  25236-3 0  9992
2 18958  82.5162   4.4287 0003314 222.6155 137.4822 15.16806880 32810
SL-3 R/B                
1 19046U 88032B   25318.85617522  .00007349  00000+0  35837-3 0  9997
2 19046  97.5053 297.7826 0024883 274.8214  85.0178 15.18340148 34679
SL-16 R/B               
1 19120U 88039B   25318.70234113 -.00000021  00000+0  12679-4 0  9993
2 19120  71.0142 311.6819 0021018 162.5500 197.6352 14.19589827942068
COSMOS 1953             
1 19210U 88050A   25318.38984315  .00007352  00000+0  28000-3 0  9993
2 19210  82.5072 274.0186 0012361 159.6362 200.5372 15.26486437 20188
SL-8 R/B                
1 19257U 88053B   25318.75056235  .00000592  00000+0  20066-3 0  9992
2 19257  74.0470 324.3068 0019971 177.4353 355.6758 14.38835799960068
COSMOS 1975             
1 19573U 88093A   25318.58758691  .00011779  00000+0  45811-3 0  9997
2 19573  82.5216 232.9943 0010114 207.8929 152.1769 15.25857440  1842
SL-14 R/B               
1 19574U 88093B   25318.81218391  .00000925  00000+0  10395-3 0  9992
2 19574  82.5294 149.8762 0022109  60.3398 310.3583 14.85507523983988
SL-16 R/B               
1 19650U 88102B   25318.62790715 -.00000020  00000+0  14095-4 0  9991
2 19650  71.0011  33.5923 0014673 195.3447 164.7234 14.16130209910602
INTERCOSMOS 24          
1 20261U 89080A   25318.85633924  .00001083  00000+0  31809-3 0  9990
2 20261  82.6067 179.0838 1188154 199.2007 156.0452 12.59376502652347
SL-14 R/B               
1 20262U 89080C   25318.74096697  .00000556  00000+0  15810-3 0  9997
2 20262  82.5935 246.9878 1231219  87.5537 286.5597 12.50382769645789
